[{"OBJECT_NAME":"ONEWEB-0611","OBJECT_ID":"2022-166AJ","EPOCH":"2026-03-09T22:39:44.150400","MEAN_MOTION":13.2182812,"ECCENTRICITY":0.00017655,"INCLINATION":87.9164,"RA_OF_ASC_NODE":263.7694,"ARG_OF_PERICENTER":95.5787,"MEAN_ANOMALY":264.5548,"EPHEMERIS_TYPE":0,"CLASSIFICATION_TYPE":"U","NORAD_CAT_ID":54674,"ELEMENT_SET_NO":999,"REV_AT_EPOCH":15833,"BSTAR":2.0979717e-5,"MEAN_MOTION_DOT":2.2e-7,"MEAN_MOTION_DDOT":0},{"OBJECT_NAME":"COSMOS 770","OBJECT_ID":"1975-089A","EPOCH":"2026-03-09T23:14:15.970560","MEAN_MOTION":13.19804498,"ECCENTRICITY":0.00283758,"INCLINATION":82.9533,"RA_OF_ASC_NODE":75.5278,"ARG_OF_PERICENTER":350.4032,"MEAN_ANOMALY":70.2298,"EPHEMERIS_TYPE":0,"CLASSIFICATION_TYPE":"U","NORAD_CAT_ID":8325,"ELEMENT_SET_NO":999,"REV_AT_EPOCH":43030,"BSTAR":3.5508058e-5,"MEAN_MOTION_DOT":2.7e-7,"MEAN_MOTION_DDOT":0}]
